[{"OBJECT_NAME":"GEISAT PRECURSOR","OBJECT_ID":"2023-084C","EPOCH":"2026-03-09T22:20:25.833120","MEAN_MOTION":15.33054389,"ECCENTRICITY":0.00051675,"INCLINATION":97.6055,"RA_OF_ASC_NODE":206.8263,"ARG_OF_PERICENTER":345.1842,"MEAN_ANOMALY":14.9247,"EPHEMERIS_TYPE":0,"CLASSIFICATION_TYPE":"U","NORAD_CAT_ID":56934,"ELEMENT_SET_NO":999,"REV_AT_EPOCH":15231,"BSTAR":0.00033857167,"MEAN_MOTION_DOT":0.00010736,"MEAN_MOTION_DDOT":0},{"OBJECT_NAME":"STARLINK-35420","OBJECT_ID":"2025-245AC","EPOCH":"2026-03-09T20:45:08.121312","MEAN_MOTION":15.3020528,"ECCENTRICITY":6.901e-5,"INCLINATION":53.158,"RA_OF_ASC_NODE":283.0536,"ARG_OF_PERICENTER":117.201,"MEAN_ANOMALY":242.9061,"EPHEMERIS_TYPE":0,"CLASSIFICATION_TYPE":"U","NORAD_CAT_ID":66260,"ELEMENT_SET_NO":999,"REV_AT_EPOCH":2128,"BSTAR":0.00081961264,"MEAN_MOTION_DOT":0.00023998,"MEAN_MOTION_DDOT":0}]
